GLOBALSTAR M024         
1 25883U 99043A   25054.91410050 -.00000096  00000+0 -11044-2 0  9995
2 25883  52.0001 276.2112 0000604 284.2130  88.4893 11.10164578102284
GLOBALSTAR M027         
1 25884U 99043B   25054.90292285 -.00000035  00000+0  10766-2 0  9995
2 25884  52.0256 351.0044 0021200 167.5654 192.5665 11.04371030128729
GLOBALSTAR M054         
1 25885U 99043C   25054.96546861 -.00000123  00000+0 -13242-2 0  9995
2 25885  52.0129 137.1651 0005335 344.1219 187.0878 11.39214312106141
GLOBALSTAR M053         
1 25886U 99043D   25054.54961715 -.00000060  00000+0  26058-3 0  9998
2 25886  51.9978  78.9491 0003408 242.2949 288.7799 11.27663226106626
GLOBALSTAR M058         
1 25907U 99049A   25054.96734638 -.00000075  00000+0  12364-3 0  9997
2 25907  51.9951  51.4994 0002110  58.9691 301.1350 11.93199038528023
GLOBALSTAR M050         
1 25908U 99049B   25054.95823050 -.00000125  00000+0 -41258-3 0  9995
2 25908  51.9984  67.6596 0009239 164.9905 205.0646 12.07449284134516
GLOBALSTAR M033         
1 25909U 99049C   25054.90527359 -.00000125  00000+0 -31988-3 0  9993
2 25909  51.9927 307.4647 0013924  32.5491 327.6213 12.20287395521915
GLOBALSTAR M055         
1 25910U 99049D   25054.92378940 -.00000049  00000+0  38604-3 0  9993
2 25910  52.0043 323.6751 0006344 257.8869 102.1272 12.29421522154355
